[{"OBJECT_NAME":"STARLINK-31263","OBJECT_ID":"2024-017G","EPOCH":"2026-03-09T13:33:11.128032","MEAN_MOTION":15.30192685,"ECCENTRICITY":9.65e-5,"INCLINATION":53.1593,"RA_OF_ASC_NODE":194.487,"ARG_OF_PERICENTER":55.701,"MEAN_ANOMALY":304.4082,"EPHEMERIS_TYPE":0,"CLASSIFICATION_TYPE":"U","NORAD_CAT_ID":58832,"ELEMENT_SET_NO":999,"REV_AT_EPOCH":12029,"BSTAR":2.6592e-6,"MEAN_MOTION_DOT":-2.8e-6,"MEAN_MOTION_DDOT":0},{"OBJECT_NAME":"TEVEL2-2","OBJECT_ID":"2025-052K","EPOCH":"2026-03-09T15:33:48.895776","MEAN_MOTION":15.30343745,"ECCENTRICITY":0.0004693,"INCLINATION":97.3987,"RA_OF_ASC_NODE":324.77,"ARG_OF_PERICENTER":105.793,"MEAN_ANOMALY":254.3828,"EPHEMERIS_TYPE":0,"CLASSIFICATION_TYPE":"U","NORAD_CAT_ID":63219,"ELEMENT_SET_NO":999,"REV_AT_EPOCH":5485,"BSTAR":0.00069428,"MEAN_MOTION_DOT":0.00020339,"MEAN_MOTION_DDOT":0}]
