STARLINK-31263          
1 58832U 24017G   26068.56471213 -.00000280  00000+0  26592-5 0  9990
2 58832  53.1593 194.4870 0000965  55.7010 304.4082 15.30192685120290
TEVEL2-2                
1 63219U 25052K   26068.64848259  .00020339  00000+0  69428-3 0  9991
2 63219  97.3987 324.7700 0004693 105.7930 254.3828 15.30343745 54855
